IXPE                    
1 49954U 21121A   24096.91667824  .00002883  00000+0  17491-3 0  9997
2 49954   0.2301 209.4342 0009713 285.6217 335.2203 14.97147497  5640
